H-2A R/B                
1 28932U 06002B   26087.67663288  .00013051  00000+0  64393-3 0  9998
2 28932  98.2444 236.3434 0052396 176.0645 184.1009 15.16834432 97316
RESURS-DK 1             
1 29228U 06021A   26087.71060016  .00002487  00000+0  14718-3 0  9990
2 29228  69.9338 187.8202 0001202  53.5676 306.5601 15.12862475 90403
CZ-4B R/B               
1 29507U 06046C   26087.87000777  .00005763  00000+0  29039-3 0  9994
2 29507  97.5560 132.7261 0032767 198.4887 161.5158 15.17093759 62955
CZ-2C R/B               
1 31114U 07010B   26087.81790914  .00000142  00000+0  84534-4 0  9994
2 31114  98.3998 200.1398 0058084 237.9391 121.6138 14.20253027982434
COSMO-SKYMED 1          
1 31598U 07023A   26087.85303147  .00003760  00000+0  33478-3 0  9995
2 31598  97.8874 279.0415 0000975 100.3170 259.8161 14.96670450 17778
COSMOS 2428             
1 31792U 07029A   26087.64936576 -.00000039  00000+0  48654-5 0  9993
2 31792  70.9434 163.5513 0009697 257.5457 102.4580 14.12948327966777
SL-16 R/B               
1 31793U 07029B   26087.88664813  .00000030  00000+0  40264-4 0  9990
2 31793  70.9748 132.0330 0002722 277.9341 253.8684 14.14843488968080
KORONAS-FOTON           
1 33504U 09003A   26087.49947832  .00016135  00000+0  35436-3 0  9995
2 33504  82.4276 256.3122 0011780  88.8252 271.4344 15.43816881948648
CZ-2C R/B               
1 37731U 11030B   26087.86265691  .00001602  00000+0  20784-3 0  9994
2 37731  97.8576  44.7469 0051114 288.6356 124.8699 14.81288346792933
H-2A R/B                
1 38341U 12025E   26087.86762267  .00003767  00000+0  34201-3 0  9991
2 38341  98.4762  56.4548 0042748 249.4379 110.2251 14.95301389751088
SHIJIAN-16 (SJ-16)      
1 39358U 13057A   26087.86867784  .00002345  00000+0  23117-3 0  9991
2 39358  74.9725 148.7821 0015236  62.6750 297.5987 14.92423158674360
SL-4 R/B                
1 39679U 14021B   26087.77830193  .00022219  00000+0  47701-3 0  9990
2 39679  51.6044 244.1089 0095568 172.5581 187.6847 15.39833982659211
