CCSDS_OMM_VERS = 2.0
CREATION_DATE  = 
ORIGINATOR     = 

OBJECT_NAME    = H-2A R/B
OBJECT_ID      = 2006-002B
CENTER_NAME    = EARTH
REF_FRAME      = TEME
TIME_SYSTEM    = UTC
MEAN_ELEMENT_THEORY = SGP/SGP4

EPOCH          = 2026-03-28T16:14:21.080832
MEAN_MOTION    = 15.16834432
ECCENTRICITY   = .0052396
INCLINATION    = 98.2444
RA_OF_ASC_NODE = 236.3434
ARG_OF_PERICENTER = 176.0645
MEAN_ANOMALY   = 184.1009

EPHEMERIS_TYPE = 0
CLASSIFICATION_TYPE = U
NORAD_CAT_ID   = 28932
ELEMENT_SET_NO = 999
REV_AT_EPOCH   = 9731
BSTAR          = .64393E-3
MEAN_MOTION_DOT = .13051E-3
MEAN_MOTION_DDOT = 0

CCSDS_OMM_VERS = 2.0
CREATION_DATE  = 
ORIGINATOR     = 

OBJECT_NAME    = RESURS-DK 1
OBJECT_ID      = 2006-021A
CENTER_NAME    = EARTH
REF_FRAME      = TEME
TIME_SYSTEM    = UTC
MEAN_ELEMENT_THEORY = SGP/SGP4

EPOCH          = 2026-03-28T17:03:15.853824
MEAN_MOTION    = 15.12862475
ECCENTRICITY   = .0001202
INCLINATION    = 69.9338
RA_OF_ASC_NODE = 187.8202
ARG_OF_PERICENTER = 53.5676
MEAN_ANOMALY   = 306.5601

EPHEMERIS_TYPE = 0
CLASSIFICATION_TYPE = U
NORAD_CAT_ID   = 29228
ELEMENT_SET_NO = 999
REV_AT_EPOCH   = 9040
BSTAR          = .14718E-3
MEAN_MOTION_DOT = .2487E-4
MEAN_MOTION_DDOT = 0

CCSDS_OMM_VERS = 2.0
CREATION_DATE  = 
ORIGINATOR     = 

OBJECT_NAME    = CZ-4B R/B
OBJECT_ID      = 2006-046C
CENTER_NAME    = EARTH
REF_FRAME      = TEME
TIME_SYSTEM    = UTC
MEAN_ELEMENT_THEORY = SGP/SGP4

EPOCH          = 2026-03-28T20:52:48.671328
MEAN_MOTION    = 15.17093759
ECCENTRICITY   = .0032767
INCLINATION    = 97.5560
RA_OF_ASC_NODE = 132.7261
ARG_OF_PERICENTER = 198.4887
MEAN_ANOMALY   = 161.5158

EPHEMERIS_TYPE = 0
CLASSIFICATION_TYPE = U
NORAD_CAT_ID   = 29507
ELEMENT_SET_NO = 999
REV_AT_EPOCH   = 6295
BSTAR          = .29039E-3
MEAN_MOTION_DOT = .5763E-4
MEAN_MOTION_DDOT = 0

CCSDS_OMM_VERS = 2.0
CREATION_DATE  = 
ORIGINATOR     = 

OBJECT_NAME    = CZ-2C R/B
OBJECT_ID      = 2007-010B
CENTER_NAME    = EARTH
REF_FRAME      = TEME
TIME_SYSTEM    = UTC
MEAN_ELEMENT_THEORY = SGP/SGP4

EPOCH          = 2026-03-28T19:37:47.349696
MEAN_MOTION    = 14.20253027
ECCENTRICITY   = .0058084
INCLINATION    = 98.3998
RA_OF_ASC_NODE = 200.1398
ARG_OF_PERICENTER = 237.9391
MEAN_ANOMALY   = 121.6138

EPHEMERIS_TYPE = 0
CLASSIFICATION_TYPE = U
NORAD_CAT_ID   = 31114
ELEMENT_SET_NO = 999
REV_AT_EPOCH   = 98243
BSTAR          = .84534E-4
MEAN_MOTION_DOT = .142E-5
MEAN_MOTION_DDOT = 0

CCSDS_OMM_VERS = 2.0
CREATION_DATE  = 
ORIGINATOR     = 

OBJECT_NAME    = COSMO-SKYMED 1
OBJECT_ID      = 2007-023A
CENTER_NAME    = EARTH
REF_FRAME      = TEME
TIME_SYSTEM    = UTC
MEAN_ELEMENT_THEORY = SGP/SGP4

EPOCH          = 2026-03-28T20:28:21.919008
MEAN_MOTION    = 14.96670450
ECCENTRICITY   = .0000975
INCLINATION    = 97.8874
RA_OF_ASC_NODE = 279.0415
ARG_OF_PERICENTER = 100.3170
MEAN_ANOMALY   = 259.8161

EPHEMERIS_TYPE = 0
CLASSIFICATION_TYPE = U
NORAD_CAT_ID   = 31598
ELEMENT_SET_NO = 999
REV_AT_EPOCH   = 1777
BSTAR          = .33478E-3
MEAN_MOTION_DOT = .376E-4
MEAN_MOTION_DDOT = 0

CCSDS_OMM_VERS = 2.0
CREATION_DATE  = 
ORIGINATOR     = 

OBJECT_NAME    = COSMOS 2428
OBJECT_ID      = 2007-029A
CENTER_NAME    = EARTH
REF_FRAME      = TEME
TIME_SYSTEM    = UTC
MEAN_ELEMENT_THEORY = SGP/SGP4

EPOCH          = 2026-03-28T15:35:05.201664
MEAN_MOTION    = 14.12948327
ECCENTRICITY   = .0009697
INCLINATION    = 70.9434
RA_OF_ASC_NODE = 163.5513
ARG_OF_PERICENTER = 257.5457
MEAN_ANOMALY   = 102.4580

EPHEMERIS_TYPE = 0
CLASSIFICATION_TYPE = U
NORAD_CAT_ID   = 31792
ELEMENT_SET_NO = 999
REV_AT_EPOCH   = 96677
BSTAR          = .48654E-5
MEAN_MOTION_DOT = -.39E-6
MEAN_MOTION_DDOT = 0

CCSDS_OMM_VERS = 2.0
CREATION_DATE  = 
ORIGINATOR     = 

OBJECT_NAME    = SL-16 R/B
OBJECT_ID      = 2007-029B
CENTER_NAME    = EARTH
REF_FRAME      = TEME
TIME_SYSTEM    = UTC
MEAN_ELEMENT_THEORY = SGP/SGP4

EPOCH          = 2026-03-28T21:16:46.398432
MEAN_MOTION    = 14.14843488
ECCENTRICITY   = .0002722
INCLINATION    = 70.9748
RA_OF_ASC_NODE = 132.0330
ARG_OF_PERICENTER = 277.9341
MEAN_ANOMALY   = 253.8684

EPHEMERIS_TYPE = 0
CLASSIFICATION_TYPE = U
NORAD_CAT_ID   = 31793
ELEMENT_SET_NO = 999
REV_AT_EPOCH   = 96808
BSTAR          = .40264E-4
MEAN_MOTION_DOT = .3E-6
MEAN_MOTION_DDOT = 0

CCSDS_OMM_VERS = 2.0
CREATION_DATE  = 
ORIGINATOR     = 

OBJECT_NAME    = KORONAS-FOTON
OBJECT_ID      = 2009-003A
CENTER_NAME    = EARTH
REF_FRAME      = TEME
TIME_SYSTEM    = UTC
MEAN_ELEMENT_THEORY = SGP/SGP4

EPOCH          = 2026-03-28T11:59:14.926848
MEAN_MOTION    = 15.43816881
ECCENTRICITY   = .001178
INCLINATION    = 82.4276
RA_OF_ASC_NODE = 256.3122
ARG_OF_PERICENTER = 88.8252
MEAN_ANOMALY   = 271.4344

EPHEMERIS_TYPE = 0
CLASSIFICATION_TYPE = U
NORAD_CAT_ID   = 33504
ELEMENT_SET_NO = 999
REV_AT_EPOCH   = 94864
BSTAR          = .35436E-3
MEAN_MOTION_DOT = .16135E-3
MEAN_MOTION_DDOT = 0

CCSDS_OMM_VERS = 2.0
CREATION_DATE  = 
ORIGINATOR     = 

OBJECT_NAME    = CZ-2C R/B
OBJECT_ID      = 2011-030B
CENTER_NAME    = EARTH
REF_FRAME      = TEME
TIME_SYSTEM    = UTC
MEAN_ELEMENT_THEORY = SGP/SGP4

EPOCH          = 2026-03-28T20:42:13.557024
MEAN_MOTION    = 14.81288346
ECCENTRICITY   = .0051114
INCLINATION    = 97.8576
RA_OF_ASC_NODE = 44.7469
ARG_OF_PERICENTER = 288.6356
MEAN_ANOMALY   = 124.8699

EPHEMERIS_TYPE = 0
CLASSIFICATION_TYPE = U
NORAD_CAT_ID   = 37731
ELEMENT_SET_NO = 999
REV_AT_EPOCH   = 79293
BSTAR          = .20784E-3
MEAN_MOTION_DOT = .1602E-4
MEAN_MOTION_DDOT = 0

CCSDS_OMM_VERS = 2.0
CREATION_DATE  = 
ORIGINATOR     = 

OBJECT_NAME    = H-2A R/B
OBJECT_ID      = 2012-025E
CENTER_NAME    = EARTH
REF_FRAME      = TEME
TIME_SYSTEM    = UTC
MEAN_ELEMENT_THEORY = SGP/SGP4

EPOCH          = 2026-03-28T20:49:22.598688
MEAN_MOTION    = 14.95301389
ECCENTRICITY   = .0042748
INCLINATION    = 98.4762
RA_OF_ASC_NODE = 56.4548
ARG_OF_PERICENTER = 249.4379
MEAN_ANOMALY   = 110.2251

EPHEMERIS_TYPE = 0
CLASSIFICATION_TYPE = U
NORAD_CAT_ID   = 38341
ELEMENT_SET_NO = 999
REV_AT_EPOCH   = 75108
BSTAR          = .34201E-3
MEAN_MOTION_DOT = .3767E-4
MEAN_MOTION_DDOT = 0

CCSDS_OMM_VERS = 2.0
CREATION_DATE  = 
ORIGINATOR     = 

OBJECT_NAME    = SHIJIAN-16 (SJ-16)
OBJECT_ID      = 2013-057A
CENTER_NAME    = EARTH
REF_FRAME      = TEME
TIME_SYSTEM    = UTC
MEAN_ELEMENT_THEORY = SGP/SGP4

EPOCH          = 2026-03-28T20:50:53.765376
MEAN_MOTION    = 14.92423158
ECCENTRICITY   = .0015236
INCLINATION    = 74.9725
RA_OF_ASC_NODE = 148.7821
ARG_OF_PERICENTER = 62.6750
MEAN_ANOMALY   = 297.5987

EPHEMERIS_TYPE = 0
CLASSIFICATION_TYPE = U
NORAD_CAT_ID   = 39358
ELEMENT_SET_NO = 999
REV_AT_EPOCH   = 67436
BSTAR          = .23117E-3
MEAN_MOTION_DOT = .2345E-4
MEAN_MOTION_DDOT = 0

CCSDS_OMM_VERS = 2.0
CREATION_DATE  = 
ORIGINATOR     = 

OBJECT_NAME    = SL-4 R/B
OBJECT_ID      = 2014-021B
CENTER_NAME    = EARTH
REF_FRAME      = TEME
TIME_SYSTEM    = UTC
MEAN_ELEMENT_THEORY = SGP/SGP4

EPOCH          = 2026-03-28T18:40:45.286752
MEAN_MOTION    = 15.39833982
ECCENTRICITY   = .0095568
INCLINATION    = 51.6044
RA_OF_ASC_NODE = 244.1089
ARG_OF_PERICENTER = 172.5581
MEAN_ANOMALY   = 187.6847

EPHEMERIS_TYPE = 0
CLASSIFICATION_TYPE = U
NORAD_CAT_ID   = 39679
ELEMENT_SET_NO = 999
REV_AT_EPOCH   = 65921
BSTAR          = .47701E-3
MEAN_MOTION_DOT = .22219E-3
MEAN_MOTION_DDOT = 0

